NORAD_CAT_ID,OBJECT_NAME,OBJECT_TYPE,EPOCH,MEAN_MOTION,ECCENTRICITY,INCLINATION,RA_OF_ASC_NODE,ARG_OF_PERICENTER,MEAN_ANOMALY,BSTAR,MEAN_MOTION_DOT,MEAN_MOTION_DDOT,TLE_LINE0,TLE_LINE1,TLE_LINE2,SEMIMAJOR_AXIS,PERIOD,APOGEE,PERIGEE,DECAYED
52994.0,STARLINK-4256,PAYLOAD,2024-05-02 12:31:22,15.08826768,0.0001383,53.2185,249.5601,99.3445,260.7704,-3.4902e-05,-8.43e-06,0.0,0 STARLINK-4256,1 52994U 22076J   24123.52179247 -.00000843  00000-0 -34902-4 0  9994,2 52994  53.2185 249.5601 0001383  99.3445 260.7704 15.08826768101235,6917.921,95.438,540.743,538.829,0.0
52994.0,STARLINK-4256,PAYLOAD,2024-05-02 14:06:45,15.08827816,0.000143,53.2187,249.2629,98.6603,261.4551,-2.6385e-05,-7.08e-06,0.0,0 STARLINK-4256,1 52994U 22076J   24123.58803212 -.00000708  00000-0 -26385-4 0  9992,2 52994  53.2187 249.2629 0001430  98.6603 261.4551 15.08827816100776,6917.918,95.438,540.772,538.793,0.0
52994.0,STARLINK-4256,PAYLOAD,2024-05-02 18:52:54,15.08834851,0.0001214,53.2159,248.3668,91.1691,268.9441,2.6714e-05,1.37e-06,0.0,0 STARLINK-4256,1 52994U 22076J   24123.78674629  .00000137  00000-0  26714-4 0  9992,2 52994  53.2159 248.3668 0001214  91.1691 268.9441 15.08834851101276,6917.896,95.438,540.601,538.921,0.0
52994.0,STARLINK-4256,PAYLOAD,2024-05-03 13:57:31,15.0884137,0.0001552,53.217,244.8002,112.4446,247.6711,0.00015877,2.24e-05,0.0,0 STARLINK-4256,1 52994U 22076J   24124.58161666  .00002240  00000-0  15877-3 0  9997,2 52994  53.2170 244.8002 0001552 112.4446 247.6711 15.08841370101393,6917.876,95.437,540.815,538.668,0.0
52994.0,STARLINK-4256,PAYLOAD,2024-05-03 15:32:54,15.08851725,0.000133,53.2155,244.5005,87.5577,272.5567,8.3347e-05,1.039e-05,0.0,0 STARLINK-4256,1 52994U 22076J   24124.64785318  .00001039  00000-0  83347-4 0  9993,2 52994  53.2155 244.5005 0001330  87.5577 272.5567 15.08851725101400,6917.845,95.437,540.63,538.789,0.0
52994.0,STARLINK-4256,PAYLOAD,2024-05-04 01:05:12,15.08867074,0.0001103,53.2157,242.7155,65.8557,294.255,8.0182e-05,9.89e-06,0.0,0 STARLINK-4256,1 52994U 22076J   24125.04527880  .00000989  00000-0  80182-4 0  9993,2 52994  53.2157 242.7155 0001103  65.8557 294.2550 15.08867074101466,6917.798,95.436,540.426,538.9,0.0
52994.0,STARLINK-4256,PAYLOAD,2024-05-04 13:48:19,15.08823608,0.0001277,53.2167,240.341,86.8562,273.2576,3.2253e-05,2.25e-06,0.0,0 STARLINK-4256,1 52994U 22076J   24125.57522935  .00000225  00000-0  32253-4 0  9996,2 52994  53.2167 240.3410 0001277  86.8562 273.2576 15.08823608101545,6917.93,95.439,540.679,538.912,0.0
52994.0,STARLINK-4256,PAYLOAD,2024-05-04 16:59:05,15.08833926,0.0001255,53.2163,239.7435,80.5343,279.5791,6.1151e-05,6.85e-06,0.0,0 STARLINK-4256,1 52994U 22076J   24125.70770240  .00000685  00000-0  61151-4 0  9994,2 52994  53.2163 239.7435 0001255  80.5343 279.5791 15.08833926101568,6917.899,95.438,540.632,538.896,0.0
52994.0,STARLINK-4256,PAYLOAD,2024-05-05 00:56:00,15.08843379,0.0001304,53.2172,238.2572,83.7474,276.3667,3.938e-05,3.39e-06,0.0,0 STARLINK-4256,1 52994U 22076J   24126.03889738  .00000339  00000-0  39380-4 0  9999,2 52994  53.2172 238.2572 0001304  83.7474 276.3667 15.08843379101615,6917.87,95.437,540.637,538.833,0.0
52994.0,STARLINK-4256,PAYLOAD,2024-05-05 12:03:43,15.08841424,0.0001488,53.218,236.1763,79.9575,280.1585,-8.6247e-05,-1.66e-05,0.0,0 STARLINK-4256,1 52994U 22076J   24126.50258486 -.00001660  00000-0 -86247-4 0  9995,2 52994  53.2180 236.1763 0001488  79.9575 280.1585 15.08841424101683,6917.876,95.437,540.77,538.712,0.0
52994.0,STARLINK-4256,PAYLOAD,2024-05-05 13:39:06,15.08846849,0.0001419,53.2179,235.8789,103.2343,256.8808,-0.00014726,-2.631e-05,0.0,0 STARLINK-4256,1 52994U 22076J   24126.56882220 -.00002631  00000-0 -14726-3 0  9991,2 52994  53.2179 235.8789 0001419 103.2343 256.8808 15.08846849101227,6917.859,95.437,540.706,538.743,0.0
52994.0,STARLINK-4256,PAYLOAD,2024-05-06 00:46:47,15.08846766,0.0001381,53.2177,233.7964,91.531,268.584,-1.6665e-06,-3.14e-06,0.0,0 STARLINK-4256,1 52994U 22076J   24127.03249660 -.00000314  00000-0 -16665-5 0  9991,2 52994  53.2177 233.7964 0001381  91.5310 268.5840 15.08846766101761,6917.86,95.437,540.68,538.769,0.0
52994.0,STARLINK-4256,PAYLOAD,2024-05-06 13:29:53,15.08832304,0.0001337,53.218,231.4177,88.9667,271.1478,0.0001921,2.77e-05,0.0,0 STARLINK-4256,1 52994U 22076J   24127.56242151  .00002770  00000-0  19210-3 0  9990,2 52994  53.2180 231.4177 0001337  88.9667 271.1478 15.08832304101841,6917.904,95.438,540.694,538.844,0.0
52994.0,STARLINK-4256,PAYLOAD,2024-05-07 13:20:40,15.08834782,0.0001191,53.2159,226.9578,89.1896,270.9233,8.1173e-05,1.004e-05,0.0,0 STARLINK-4256,1 52994U 22076J   24128.55602417  .00001004  00000-0  81173-4 0  9992,2 52994  53.2159 226.9578 0001191  89.1896 270.9233 15.08834782101529,6917.896,95.438,540.585,538.937,0.0
52994.0,STARLINK-4256,PAYLOAD,2024-05-08 13:11:27,15.08839918,0.0001186,53.217,222.4998,92.6749,267.4379,2.7676e-05,1.53e-06,0.0,0 STARLINK-4256,1 52994U 22076J   24129.54962538  .00000153  00000-0  27676-4 0  9997,2 52994  53.2170 222.4998 0001186  92.6749 267.4379 15.08839918102146,6917.881,95.438,540.566,538.925,0.0
52994.0,STARLINK-4256,PAYLOAD,2024-05-08 22:43:45,15.0885124,0.0001234,53.2169,220.7147,92.596,267.5173,3.8107e-05,3.19e-06,0.0,0 STARLINK-4256,1 52994U 22076J   24129.94705379  .00000319  00000-0  38107-4 0  9994,2 52994  53.2169 220.7147 0001234  92.5960 267.5173 15.08851240102201,6917.846,95.437,540.565,538.857,0.0
52994.0,STARLINK-4256,PAYLOAD,2024-05-09 13:02:15,15.08829063,0.0001382,53.2177,218.0405,107.2885,252.8259,7.8897e-05,9.68e-06,0.0,0 STARLINK-4256,1 52994U 22076J   24130.54323175  .00000968  00000-0  78897-4 0  9992,2 52994  53.2177 218.0405 0001382 107.2885 252.8259 15.08829063102290,6917.914,95.438,540.735,538.823,0.0
52994.0,STARLINK-4256,PAYLOAD,2024-05-10 14:28:25,15.08836228,0.0001398,53.2176,213.2821,102.5062,257.6087,8.4049e-05,1.05e-05,0.0,0 STARLINK-4256,1 52994U 22076J   24131.60307241  .00001050  00000-0  84049-4 0  9995,2 52994  53.2176 213.2821 0001398 102.5062 257.6087 15.08836228101988,6917.892,95.438,540.724,538.79,0.0
52994.0,STARLINK-4256,PAYLOAD,2024-05-10 16:03:48,15.08841848,0.0001195,53.2165,212.9813,89.104,271.009,8.627e-05,1.085e-05,0.0,0 STARLINK-4256,1 52994U 22076J   24131.66930922  .00001085  00000-0  86270-4 0  9995,2 52994  53.2165 212.9813 0001195  89.1040 271.0090 15.08841848102466,6917.875,95.437,540.566,538.913,0.0
52994.0,STARLINK-4256,PAYLOAD,2024-05-11 04:46:52,15.08849371,0.0001608,53.2176,210.6049,70.7739,289.3427,0.00030231,4.528e-05,0.0,0 STARLINK-4256,1 52994U 22076J   24132.19922125  .00004528  00000-0  30231-3 0  9990,2 52994  53.2176 210.6049 0001608  70.7739 289.3427 15.08849371102548,6917.852,95.437,540.829,538.604,0.0
52994.0,STARLINK-4256,PAYLOAD,2024-05-11 11:08:22,15.08913526,0.0001663,53.2154,209.4096,94.236,265.8822,0.0012424,0.0001958,0.0,0 STARLINK-4256,1 52994U 22076J   24132.46415357  .00019580  00000-0  12424-2 0  9991,2 52994  53.2154 209.4096 0001663  94.2360 265.8822 15.08913526102580,6917.656,95.433,540.671,538.37,0.0
52994.0,STARLINK-4256,PAYLOAD,2024-05-11 22:16:06,15.0885916,0.0001823,53.2153,207.3314,68.8915,291.2272,0.00026212,3.888e-05,0.0,0 STARLINK-4256,1 52994U 22076J   24132.92784896  .00003888  00000-0  26212-3 0  9994,2 52994  53.2153 207.3314 0001823  68.8915 291.2272 15.08859160102181,6917.822,95.436,540.948,538.426,0.0
52994.0,STARLINK-4256,PAYLOAD,2024-05-12 12:34:36,15.08812296,0.000133,53.215,204.6551,94.6087,265.5057,-0.00043501,-7.199e-05,0.0,0 STARLINK-4256,1 52994U 22076J   24133.52403863 -.00007199  00000-0 -43501-3 0  9994,2 52994  53.2150 204.6551 0001330  94.6087 265.5057 15.08812296102747,6917.965,95.439,540.75,538.91,0.0
52994.0,STARLINK-4256,PAYLOAD,2024-05-12 22:06:56,15.08814224,0.0001368,53.2153,202.8713,94.3965,265.7183,-0.00021917,-3.772e-05,0.0,0 STARLINK-4256,1 52994U 22076J   24133.92148562 -.00003772  00000-0 -21917-3 0  9990,2 52994  53.2153 202.8713 0001368  94.3965 265.7183 15.08814224102333,6917.959,95.439,540.771,538.878,0.0
52994.0,STARLINK-4256,PAYLOAD,2024-05-13 04:28:28,15.08826952,0.0001265,53.2154,201.6809,89.55,270.5637,8.8535e-05,1.121e-05,0.0,0 STARLINK-4256,1 52994U 22076J   24134.18644462  .00001121  00000-0  88535-4 0  9993,2 52994  53.2154 201.6809 0001265  89.5500 270.5637 15.08826952102849,6917.92,95.438,540.66,538.91,0.0
52994.0,STARLINK-4256,PAYLOAD,2024-05-13 10:50:01,15.08839258,0.0001603,53.2152,200.4912,94.0622,266.0553,0.000236,3.47e-05,0.0,0 STARLINK-4256,1 52994U 22076J   24134.45140360  .00003470  00000-0  23600-3 0  9991,2 52994  53.2152 200.4912 0001603  94.0622 266.0553 15.08839258102414,6917.883,95.438,540.857,538.639,0.0
52994.0,STARLINK-4256,PAYLOAD,2024-05-14 04:19:16,15.0883838,0.0001528,53.2157,197.2202,90.6475,269.4692,0.00098818,0.00015473,0.0,0 STARLINK-4256,1 52994U 22076J   24135.18005218  .00015473  00000-0  98818-3 0  9993,2 52994  53.2157 197.2202 0001528  90.6475 269.4692 15.08838380102997,6917.885,95.438,540.807,538.693,0.0
52994.0,STARLINK-4256,PAYLOAD,2024-05-14 13:51:34,15.08855283,0.0001274,53.2144,195.4358,90.8644,269.2494,0.00073671,0.00011461,0.0,0 STARLINK-4256,1 52994U 22076J   24135.57748329  .00011461  00000-0  73671-3 0  9996,2 52994  53.2144 195.4358 0001274  90.8644 269.2494 15.08855283102587,6917.834,95.437,540.58,538.817,0.0
52994.0,STARLINK-4256,PAYLOAD,2024-05-15 10:31:34,15.08847034,0.0001516,53.2159,191.5691,96.3738,263.7427,-8.09e-06,-4.17e-06,0.0,0 STARLINK-4256,1 52994U 22076J   24136.43859776 -.00000417  00000-0 -80900-5 0  9997,2 52994  53.2159 191.5691 0001516  96.3738 263.7427 15.08847034103181,6917.859,95.437,540.773,538.675,0.0
52994.0,STARLINK-4256,PAYLOAD,2024-05-16 10:22:21,15.08854428,0.0001409,53.2167,187.1129,99.5658,260.5493,5.4267e-05,5.76e-06,0.0,0 STARLINK-4256,1 52994U 22076J   24137.43218851  .00000576  00000-0  54267-4 0  9991,2 52994  53.2167 187.1129 0001409  99.5658 260.5493 15.08854428102861,6917.836,95.437,540.676,538.727,0.0
